KUIPER-00152            
1 65772U 25217L   26009.91668981 -.00043790  00000+0 -36667-2 0  9993
2 65772  51.8921 291.4328 0003761 171.1958 259.4870 14.98026652  4724
KUIPER-00153            
1 65773U 25217M   26009.53351299  .00010486  00000+0  61862-3 0  9993
2 65773  51.8778 302.9360 0013381 119.8139 240.4169 15.12000055 16144
KUIPER-00155            
1 65774U 25217N   26009.91668981 -.00021687  00000+0 -93819-3 0  9999
2 65774  51.8765 289.2633 0006835 124.0120 253.4236 15.21514980  5880
KUIPER-00156            
1 65775U 25217P   26009.91668981 -.01770178  00000+0 -99141-1 0  9999
2 65775  51.8808 288.6368 0003435 192.6548  85.8569 15.16180987  4240
KUIPER-00158            
1 65776U 25217Q   26009.52436171 -.00002145  00000+0 -25272-3 0  9998
2 65776  51.8959 307.2190 0000838  77.3933 282.7123 14.79885539 16082
KUIPER-00163            
1 65777U 25217R   26009.52164586  .00000666  00000+0  11629-3 0  9992
2 65777  51.8991 309.7360 0000688  85.3552 274.7489 14.79948181 16049
KUIPER-00165            
1 65778U 25217S   26009.91668981 -.00054282  00000+0 -65025-2 0  9997
2 65778  51.8984 295.6763 0004599 163.4205 160.1550 14.83861864  4535
KUIPER-00166            
1 65779U 25217T   26009.91668981 -.01586223  00000+0 -65739-1 0  9995
2 65779  51.8742 288.0491 0004370 128.2919  98.3883 15.26521864  4846
