<?xml version="1.0" encoding="UTF-8"?>
<ndm xmlns:xsi="http://www.w3.org/2001/XMLSchema-instance" xsi:noNamespaceSchemaLocation="https://sanaregistry.org/r/ndmxml_unqualified/ndmxml-2.0.0-master-2.0.xsd">
<omm id="CCSDS_OMM_VERS" version="2.0">
<header><CREATION_DATE/><ORIGINATOR/></header><body><segment><metadata><OBJECT_NAME>KUIPER-00152</OBJECT_NAME><OBJECT_ID>2025-217L</OBJECT_ID><CENTER_NAME>EARTH</CENTER_NAME><REF_FRAME>TEME</REF_FRAME><TIME_SYSTEM>UTC</TIME_SYSTEM><MEAN_ELEMENT_THEORY>SGP4</MEAN_ELEMENT_THEORY></metadata><data><meanElements><EPOCH>2026-01-09T22:00:01.999584</EPOCH><MEAN_MOTION>14.98026652</MEAN_MOTION><ECCENTRICITY>.00037611</ECCENTRICITY><INCLINATION>51.8921</INCLINATION><RA_OF_ASC_NODE>291.4328</RA_OF_ASC_NODE><ARG_OF_PERICENTER>171.1958</ARG_OF_PERICENTER><MEAN_ANOMALY>259.4870</MEAN_ANOMALY></meanElements><tleParameters><EPHEMERIS_TYPE>0</EPHEMERIS_TYPE><CLASSIFICATION_TYPE>U</CLASSIFICATION_TYPE><NORAD_CAT_ID>65772</NORAD_CAT_ID><ELEMENT_SET_NO>999</ELEMENT_SET_NO><REV_AT_EPOCH>472</REV_AT_EPOCH><BSTAR>-.36667442E-2</BSTAR><MEAN_MOTION_DOT>-.4379E-3</MEAN_MOTION_DOT><MEAN_MOTION_DDOT>0</MEAN_MOTION_DDOT></tleParameters></data></segment></body></omm>
<omm id="CCSDS_OMM_VERS" version="2.0">
<header><CREATION_DATE/><ORIGINATOR/></header><body><segment><metadata><OBJECT_NAME>KUIPER-00153</OBJECT_NAME><OBJECT_ID>2025-217M</OBJECT_ID><CENTER_NAME>EARTH</CENTER_NAME><REF_FRAME>TEME</REF_FRAME><TIME_SYSTEM>UTC</TIME_SYSTEM><MEAN_ELEMENT_THEORY>SGP4</MEAN_ELEMENT_THEORY></metadata><data><meanElements><EPOCH>2026-01-09T12:48:15.522336</EPOCH><MEAN_MOTION>15.12000055</MEAN_MOTION><ECCENTRICITY>.0013381</ECCENTRICITY><INCLINATION>51.8778</INCLINATION><RA_OF_ASC_NODE>302.9360</RA_OF_ASC_NODE><ARG_OF_PERICENTER>119.8139</ARG_OF_PERICENTER><MEAN_ANOMALY>240.4169</MEAN_ANOMALY></meanElements><tleParameters><EPHEMERIS_TYPE>0</EPHEMERIS_TYPE><CLASSIFICATION_TYPE>U</CLASSIFICATION_TYPE><NORAD_CAT_ID>65773</NORAD_CAT_ID><ELEMENT_SET_NO>999</ELEMENT_SET_NO><REV_AT_EPOCH>1614</REV_AT_EPOCH><BSTAR>.61862212E-3</BSTAR><MEAN_MOTION_DOT>.10486E-3</MEAN_MOTION_DOT><MEAN_MOTION_DDOT>0</MEAN_MOTION_DDOT></tleParameters></data></segment></body></omm>
<omm id="CCSDS_OMM_VERS" version="2.0">
<header><CREATION_DATE/><ORIGINATOR/></header><body><segment><metadata><OBJECT_NAME>KUIPER-00155</OBJECT_NAME><OBJECT_ID>2025-217N</OBJECT_ID><CENTER_NAME>EARTH</CENTER_NAME><REF_FRAME>TEME</REF_FRAME><TIME_SYSTEM>UTC</TIME_SYSTEM><MEAN_ELEMENT_THEORY>SGP4</MEAN_ELEMENT_THEORY></metadata><data><meanElements><EPOCH>2026-01-09T22:00:01.999584</EPOCH><MEAN_MOTION>15.21514980</MEAN_MOTION><ECCENTRICITY>.00068359</ECCENTRICITY><INCLINATION>51.8765</INCLINATION><RA_OF_ASC_NODE>289.2633</RA_OF_ASC_NODE><ARG_OF_PERICENTER>124.0120</ARG_OF_PERICENTER><MEAN_ANOMALY>253.4236</MEAN_ANOMALY></meanElements><tleParameters><EPHEMERIS_TYPE>0</EPHEMERIS_TYPE><CLASSIFICATION_TYPE>U</CLASSIFICATION_TYPE><NORAD_CAT_ID>65774</NORAD_CAT_ID><ELEMENT_SET_NO>999</ELEMENT_SET_NO><REV_AT_EPOCH>588</REV_AT_EPOCH><BSTAR>-.93819246E-3</BSTAR><MEAN_MOTION_DOT>-.21687E-3</MEAN_MOTION_DOT><MEAN_MOTION_DDOT>0</MEAN_MOTION_DDOT></tleParameters></data></segment></body></omm>
<omm id="CCSDS_OMM_VERS" version="2.0">
<header><CREATION_DATE/><ORIGINATOR/></header><body><segment><metadata><OBJECT_NAME>KUIPER-00156</OBJECT_NAME><OBJECT_ID>2025-217P</OBJECT_ID><CENTER_NAME>EARTH</CENTER_NAME><REF_FRAME>TEME</REF_FRAME><TIME_SYSTEM>UTC</TIME_SYSTEM><MEAN_ELEMENT_THEORY>SGP4</MEAN_ELEMENT_THEORY></metadata><data><meanElements><EPOCH>2026-01-09T22:00:01.999584</EPOCH><MEAN_MOTION>15.16180987</MEAN_MOTION><ECCENTRICITY>.00034352</ECCENTRICITY><INCLINATION>51.8808</INCLINATION><RA_OF_ASC_NODE>288.6368</RA_OF_ASC_NODE><ARG_OF_PERICENTER>192.6548</ARG_OF_PERICENTER><MEAN_ANOMALY>85.8569</MEAN_ANOMALY></meanElements><tleParameters><EPHEMERIS_TYPE>0</EPHEMERIS_TYPE><CLASSIFICATION_TYPE>U</CLASSIFICATION_TYPE><NORAD_CAT_ID>65775</NORAD_CAT_ID><ELEMENT_SET_NO>999</ELEMENT_SET_NO><REV_AT_EPOCH>424</REV_AT_EPOCH><BSTAR>-.9914096E-1</BSTAR><MEAN_MOTION_DOT>-.1770178E-1</MEAN_MOTION_DOT><MEAN_MOTION_DDOT>0</MEAN_MOTION_DDOT></tleParameters></data></segment></body></omm>
<omm id="CCSDS_OMM_VERS" version="2.0">
<header><CREATION_DATE/><ORIGINATOR/></header><body><segment><metadata><OBJECT_NAME>KUIPER-00158</OBJECT_NAME><OBJECT_ID>2025-217Q</OBJECT_ID><CENTER_NAME>EARTH</CENTER_NAME><REF_FRAME>TEME</REF_FRAME><TIME_SYSTEM>UTC</TIME_SYSTEM><MEAN_ELEMENT_THEORY>SGP4</MEAN_ELEMENT_THEORY></metadata><data><meanElements><EPOCH>2026-01-09T12:35:04.851744</EPOCH><MEAN_MOTION>14.79885539</MEAN_MOTION><ECCENTRICITY>.00008385</ECCENTRICITY><INCLINATION>51.8959</INCLINATION><RA_OF_ASC_NODE>307.2190</RA_OF_ASC_NODE><ARG_OF_PERICENTER>77.3933</ARG_OF_PERICENTER><MEAN_ANOMALY>282.7123</MEAN_ANOMALY></meanElements><tleParameters><EPHEMERIS_TYPE>0</EPHEMERIS_TYPE><CLASSIFICATION_TYPE>U</CLASSIFICATION_TYPE><NORAD_CAT_ID>65776</NORAD_CAT_ID><ELEMENT_SET_NO>999</ELEMENT_SET_NO><REV_AT_EPOCH>1608</REV_AT_EPOCH><BSTAR>-.25272257E-3</BSTAR><MEAN_MOTION_DOT>-.2145E-4</MEAN_MOTION_DOT><MEAN_MOTION_DDOT>0</MEAN_MOTION_DDOT></tleParameters></data></segment></body></omm>
<omm id="CCSDS_OMM_VERS" version="2.0">
<header><CREATION_DATE/><ORIGINATOR/></header><body><segment><metadata><OBJECT_NAME>KUIPER-00163</OBJECT_NAME><OBJECT_ID>2025-217R</OBJECT_ID><CENTER_NAME>EARTH</CENTER_NAME><REF_FRAME>TEME</REF_FRAME><TIME_SYSTEM>UTC</TIME_SYSTEM><MEAN_ELEMENT_THEORY>SGP4</MEAN_ELEMENT_THEORY></metadata><data><meanElements><EPOCH>2026-01-09T12:31:10.202304</EPOCH><MEAN_MOTION>14.79948181</MEAN_MOTION><ECCENTRICITY>.00006884</ECCENTRICITY><INCLINATION>51.8991</INCLINATION><RA_OF_ASC_NODE>309.7360</RA_OF_ASC_NODE><ARG_OF_PERICENTER>85.3552</ARG_OF_PERICENTER><MEAN_ANOMALY>274.7489</MEAN_ANOMALY></meanElements><tleParameters><EPHEMERIS_TYPE>0</EPHEMERIS_TYPE><CLASSIFICATION_TYPE>U</CLASSIFICATION_TYPE><NORAD_CAT_ID>65777</NORAD_CAT_ID><ELEMENT_SET_NO>999</ELEMENT_SET_NO><REV_AT_EPOCH>1604</REV_AT_EPOCH><BSTAR>.11629034E-3</BSTAR><MEAN_MOTION_DOT>.666E-5</MEAN_MOTION_DOT><MEAN_MOTION_DDOT>0</MEAN_MOTION_DDOT></tleParameters></data></segment></body></omm>
<omm id="CCSDS_OMM_VERS" version="2.0">
<header><CREATION_DATE/><ORIGINATOR/></header><body><segment><metadata><OBJECT_NAME>KUIPER-00165</OBJECT_NAME><OBJECT_ID>2025-217S</OBJECT_ID><CENTER_NAME>EARTH</CENTER_NAME><REF_FRAME>TEME</REF_FRAME><TIME_SYSTEM>UTC</TIME_SYSTEM><MEAN_ELEMENT_THEORY>SGP4</MEAN_ELEMENT_THEORY></metadata><data><meanElements><EPOCH>2026-01-09T22:00:01.999584</EPOCH><MEAN_MOTION>14.83861864</MEAN_MOTION><ECCENTRICITY>.00045992</ECCENTRICITY><INCLINATION>51.8984</INCLINATION><RA_OF_ASC_NODE>295.6763</RA_OF_ASC_NODE><ARG_OF_PERICENTER>163.4205</ARG_OF_PERICENTER><MEAN_ANOMALY>160.1550</MEAN_ANOMALY></meanElements><tleParameters><EPHEMERIS_TYPE>0</EPHEMERIS_TYPE><CLASSIFICATION_TYPE>U</CLASSIFICATION_TYPE><NORAD_CAT_ID>65778</NORAD_CAT_ID><ELEMENT_SET_NO>999</ELEMENT_SET_NO><REV_AT_EPOCH>453</REV_AT_EPOCH><BSTAR>-.65024755E-2</BSTAR><MEAN_MOTION_DOT>-.54282E-3</MEAN_MOTION_DOT><MEAN_MOTION_DDOT>0</MEAN_MOTION_DDOT></tleParameters></data></segment></body></omm>
<omm id="CCSDS_OMM_VERS" version="2.0">
<header><CREATION_DATE/><ORIGINATOR/></header><body><segment><metadata><OBJECT_NAME>KUIPER-00166</OBJECT_NAME><OBJECT_ID>2025-217T</OBJECT_ID><CENTER_NAME>EARTH</CENTER_NAME><REF_FRAME>TEME</REF_FRAME><TIME_SYSTEM>UTC</TIME_SYSTEM><MEAN_ELEMENT_THEORY>SGP4</MEAN_ELEMENT_THEORY></metadata><data><meanElements><EPOCH>2026-01-09T22:00:01.999584</EPOCH><MEAN_MOTION>15.26521864</MEAN_MOTION><ECCENTRICITY>.00043701</ECCENTRICITY><INCLINATION>51.8742</INCLINATION><RA_OF_ASC_NODE>288.0491</RA_OF_ASC_NODE><ARG_OF_PERICENTER>128.2919</ARG_OF_PERICENTER><MEAN_ANOMALY>98.3883</MEAN_ANOMALY></meanElements><tleParameters><EPHEMERIS_TYPE>0</EPHEMERIS_TYPE><CLASSIFICATION_TYPE>U</CLASSIFICATION_TYPE><NORAD_CAT_ID>65779</NORAD_CAT_ID><ELEMENT_SET_NO>999</ELEMENT_SET_NO><REV_AT_EPOCH>484</REV_AT_EPOCH><BSTAR>-.65739306E-1</BSTAR><MEAN_MOTION_DOT>-.1586223E-1</MEAN_MOTION_DOT><MEAN_MOTION_DDOT>0</MEAN_MOTION_DDOT></tleParameters></data></segment></body></omm>

</ndm>
